STARLINK-2110
1 17389C 21005AS  21326.09460089  .00006527  00000-0  43739-3 0  3262
2 17389  53.0533 243.3034 0001946  72.3406   5.8438 15.06385260    18
